KUIPER-00027            
1 63740U 25088S   25239.25002315  .00000538  00000+0  46223-4 0  9998
2 63740  51.8854 238.4485 0001128 245.1692 323.8008 15.13640202  5809
KUIPER-00028            
1 63741U 25088T   25239.25002315 -.00009259  00000+0 -42695-3 0  9998
2 63741  51.8829 237.6894 0001826 189.5859 353.8976 15.18614661  5811
KUIPER-00029            
1 63742U 25088U   25239.25002315 -.00476441  00000+0 -20811-1 0  9994
2 63742  51.8761 237.5760 0002401 186.4892  28.4876 15.23774834  3188
KUIPER-00030            
1 63743U 25088V   25239.02318537  .00001106  00000+0  17423-3 0  9993
2 63743  51.9002 251.3450 0014175 153.3038 206.8657 14.79933172 18800
KUIPER-00031            
1 63744U 25088W   25239.25002315 -.01008731  00000+0 -65195-1 0  9994
2 63744  51.8790 239.1424 0002089 148.2329  32.5450 15.10418373  5938
KUIPER-00032            
1 63745U 25088X   25239.03037404  .00015853  00000+0  55914-3 0  9998
2 63745  51.8705 239.5260 0004804 131.9773 228.1620 15.29403600 19682
KUIPER-00033            
1 63746U 25088Y   25239.07288782  .00002600  00000+0  37002-3 0  9994
2 63746  51.8986 267.1872 0002711 261.1220  98.9435 14.79922965 18789
KUIPER-00034            
1 63747U 25088Z   25239.25002315 -.01979764  00000+0 -72884-1 0  9993
2 63747  51.8738 236.4494 0001136  42.1785  35.6468 15.30575805  5209
